{
  "type": "FeatureCollection",
  "features": [
    {
      "type": "Feature",
      "properties": {
        "norad_id": 38159,
        "name": "FENGYUN 1C DEB",
        "group": "fengyun-1c-debris",
        "lat": 56.86211581508276,
        "lon": -130.14851448547867,
        "alt_km": 878.4520546303402,
        "timestamp": "2025-12-18T14:52:08.315455+00:00",
        "meta_object_name": "FENGYUN 1C DEB",
        "meta_object_id": "1999-025ERG",
        "meta_epoch": "2025-12-04T22:05:20.152032",
        "meta_mean_motion": 14.03448484,
        "meta_eccentricity": 0.005704,
        "meta_inclination": 99.3156,
        "meta_ra_of_asc_node": 230.39,
        "meta_arg_of_pericenter": 2.347,
        "meta_mean_anomaly": 357.7952,
        "meta_ephemeris_type": 0,
        "meta_classification_type": "U",
        "meta_norad_cat_id": 38159,
        "meta_element_set_no": 999,
        "meta_rev_at_epoch": 83002,
        "meta_bstar": 0.0010527,
        "meta_mean_motion_dot": 1.625e-05,
        "meta_mean_motion_ddot": 0,
        "tle_line1": "1 38159U 99025ERG 25338.92037213  .00001625  00000+0  10527-2 0  9999",
        "tle_line2": "2 38159  99.3156 230.3900 0057040   2.3470 357.7952 14.03448484830021"
      },
      "geometry": {
        "type": "Point",
        "coordinates": [
          -130.14851448547867,
          56.86211581508276
        ]
      }
    },
    {
      "type": "Feature",
      "properties": {
        "norad_id": 38163,
        "name": "FENGYUN 1C DEB",
        "group": "fengyun-1c-debris",
        "lat": 29.288527227237115,
        "lon": 24.019274523233015,
        "alt_km": 924.8759929325597,
        "timestamp": "2025-12-18T14:52:08.315465+00:00",
        "meta_object_name": "FENGYUN 1C DEB",
        "meta_object_id": "1999-025ERL",
        "meta_epoch": "2025-12-17T21:38:46.665600",
        "meta_mean_motion": 14.05928635,
        "meta_eccentricity": 0.00762002,
        "meta_inclination": 99.1284,
        "meta_ra_of_asc_node": 28.4706,
        "meta_arg_of_pericenter": 227.9548,
        "meta_mean_anomaly": 131.5118,
        "meta_ephemeris_type": 0,
        "meta_classification_type": "U",
        "meta_norad_cat_id": 38163,
        "meta_element_set_no": 999,
        "meta_rev_at_epoch": 24614,
        "meta_bstar": 0.00076796978,
        "meta_mean_motion_dot": 1.245e-05,
        "meta_mean_motion_ddot": 0,
        "tle_line1": "1 38163U 99025ERL 25351.90192900  .00001245  00000+0  76797-3 0  9992",
        "tle_line2": "2 38163  99.1284  28.4706 0076200 227.9548 131.5118 14.05928635246145"
      },
      "geometry": {
        "type": "Point",
        "coordinates": [
          24.019274523233015,
          29.288527227237115
        ]
      }
    },
    {
      "type": "Feature",
      "properties": {
        "norad_id": 38166,
        "name": "FENGYUN 1C DEB",
        "group": "fengyun-1c-debris",
        "lat": 76.40988651674168,
        "lon": 54.55111631458023,
        "alt_km": 758.4767032613936,
        "timestamp": "2025-12-18T14:52:08.315475+00:00",
        "meta_object_name": "FENGYUN 1C DEB",
        "meta_object_id": "1999-025ERP",
        "meta_epoch": "2025-12-18T06:06:37.368288",
        "meta_mean_motion": 14.31016389,
        "meta_eccentricity": 0.00519289,
        "meta_inclination": 99.0782,
        "meta_ra_of_asc_node": 95.5762,
        "meta_arg_of_pericenter": 28.0617,
        "meta_mean_anomaly": 332.3346,
        "meta_ephemeris_type": 0,
        "meta_classification_type": "U",
        "meta_norad_cat_id": 38166,
        "meta_element_set_no": 999,
        "meta_rev_at_epoch": 63851,
        "meta_bstar": 0.0021062035,
        "meta_mean_motion_dot": 5.582e-05,
        "meta_mean_motion_ddot": 0,
        "tle_line1": "1 38166U 99025ERP 25352.25459917  .00005582  00000+0  21062-2 0  9990",
        "tle_line2": "2 38166  99.0782  95.5762 0051928  28.0617 332.3346 14.31016389638517"
      },
      "geometry": {
        "type": "Point",
        "coordinates": [
          54.55111631458023,
          76.40988651674168
        ]
      }
    },
    {
      "type": "Feature",
      "properties": {
        "norad_id": 38169,
        "name": "FENGYUN 1C DEB",
        "group": "fengyun-1c-debris",
        "lat": -6.050686866969554,
        "lon": -31.602432177836647,
        "alt_km": 647.1483553822654,
        "timestamp": "2025-12-18T14:52:08.315485+00:00",
        "meta_object_name": "FENGYUN 1C DEB",
        "meta_object_id": "1999-025ERS",
        "meta_epoch": "2025-12-17T04:37:40.598400",
        "meta_mean_motion": 14.71570377,
        "meta_eccentricity": 0.00320132,
        "meta_inclination": 98.9779,
        "meta_ra_of_asc_node": 325.865,
        "meta_arg_of_pericenter": 54.7995,
        "meta_mean_anomaly": 305.6199,
        "meta_ephemeris_type": 0,
        "meta_classification_type": "U",
        "meta_norad_cat_id": 38169,
        "meta_element_set_no": 999,
        "meta_rev_at_epoch": 61334,
        "meta_bstar": 0.002130707,
        "meta_mean_motion_dot": 0.00013312,
        "meta_mean_motion_ddot": 0,
        "tle_line1": "1 38169U 99025ERS 25351.19283100  .00013312  00000+0  21307-2 0  9996",
        "tle_line2": "2 38169  98.9779 325.8650 0032013  54.7995 305.6199 14.71570377613347"
      },
      "geometry": {
        "type": "Point",
        "coordinates": [
          -31.602432177836647,
          -6.050686866969554
        ]
      }
    },
    {
      "type": "Feature",
      "properties": {
        "norad_id": 38173,
        "name": "FENGYUN 1C DEB",
        "group": "fengyun-1c-debris",
        "lat": -56.99194040053114,
        "lon": -92.76736156108336,
        "alt_km": 878.6892226458167,
        "timestamp": "2025-12-18T14:52:08.315495+00:00",
        "meta_object_name": "FENGYUN 1C DEB",
        "meta_object_id": "1999-025ERW",
        "meta_epoch": "2025-12-16T11:20:48.017472",
        "meta_mean_motion": 14.37192423,
        "meta_eccentricity": 0.01631615,
        "meta_inclination": 99.0007,
        "meta_ra_of_asc_node": 250.8645,
        "meta_arg_of_pericenter": 101.6732,
        "meta_mean_anomaly": 260.2814,
        "meta_ephemeris_type": 0,
        "meta_classification_type": "U",
        "meta_norad_cat_id": 38173,
        "meta_element_set_no": 999,
        "meta_rev_at_epoch": 60697,
        "meta_bstar": 0.00064310917,
        "meta_mean_motion_dot": 2.179e-05,
        "meta_mean_motion_ddot": 0,
        "tle_line1": "1 38173U 99025ERW 25350.47277798  .00002179  00000+0  64311-3 0  9999",
        "tle_line2": "2 38173  99.0007 250.8645 0163161 101.6732 260.2814 14.37192423606974"
      },
      "geometry": {
        "type": "Point",
        "coordinates": [
          -92.76736156108336,
          -56.99194040053114
        ]
      }
    },
    {
      "type": "Feature",
      "properties": {
        "norad_id": 38493,
        "name": "FENGYUN 1C DEB",
        "group": "fengyun-1c-debris",
        "lat": 6.323720318130518,
        "lon": -49.38043805103687,
        "alt_km": 1252.0287860555381,
        "timestamp": "2025-12-18T14:52:08.315505+00:00",
        "meta_object_name": "FENGYUN 1C DEB",
        "meta_object_id": "1999-025ESC",
        "meta_epoch": "2025-12-13T14:58:26.647392",
        "meta_mean_motion": 13.62319496,
        "meta_eccentricity": 0.04264901,
        "meta_inclination": 99.0796,
        "meta_ra_of_asc_node": 306.9671,
        "meta_arg_of_pericenter": 242.9047,
        "meta_mean_anomaly": 112.7989,
        "meta_ephemeris_type": 0,
        "meta_classification_type": "U",
        "meta_norad_cat_id": 38493,
        "meta_element_set_no": 999,
        "meta_rev_at_epoch": 56510,
        "meta_bstar": 0.00047974908,
        "meta_mean_motion_dot": 6.42e-06,
        "meta_mean_motion_ddot": 0,
        "tle_line1": "1 38493U 99025ESC 25347.62391953  .00000642  00000+0  47975-3 0  9997",
        "tle_line2": "2 38493  99.0796 306.9671 0426490 242.9047 112.7989 13.62319496565102"
      },
      "geometry": {
        "type": "Point",
        "coordinates": [
          -49.38043805103687,
          6.323720318130518
        ]
      }
    },
    {
      "type": "Feature",
      "properties": {
        "norad_id": 38494,
        "name": "FENGYUN 1C DEB",
        "group": "fengyun-1c-debris",
        "lat": 70.35145208533731,
        "lon": 146.9825080467832,
        "alt_km": 995.1977474073392,
        "timestamp": "2025-12-18T14:52:08.315515+00:00",
        "meta_object_name": "FENGYUN 1C DEB",
        "meta_object_id": "1999-025ESD",
        "meta_epoch": "2025-12-18T02:22:10.646112",
        "meta_mean_motion": 14.00352108,
        "meta_eccentricity": 0.03839074,
        "meta_inclination": 98.4422,
        "meta_ra_of_asc_node": 301.9205,
        "meta_arg_of_pericenter": 354.1379,
        "meta_mean_anomaly": 5.5359,
        "meta_ephemeris_type": 0,
        "meta_classification_type": "U",
        "meta_norad_cat_id": 38494,
        "meta_element_set_no": 999,
        "meta_rev_at_epoch": 7229,
        "meta_bstar": 0.0041826828,
        "meta_mean_motion_dot": 0.00011743,
        "meta_mean_motion_ddot": 0,
        "tle_line1": "1 38494U 99025ESD 25352.09873433  .00011743  00000+0  41827-2 0  9996",
        "tle_line2": "2 38494  98.4422 301.9205 0383907 354.1379   5.5359 14.00352108 72292"
      },
      "geometry": {
        "type": "Point",
        "coordinates": [
          146.9825080467832,
          70.35145208533731
        ]
      }
    }
  ]
}